LUME 1                  
1 43908U 18111AJ  22333.17712624  .00012332  00000+0  37326-3 0  9993
2 43908  97.1663 215.9298 0015480 197.8338 162.2364 15.34198806218618
AOBA VELOX-IV           
1 43940U 19003J   22333.52015612  .00039869  00000+0  75352-3 0  9997
2 43940  97.1091   5.3785 0010999 263.8277  96.1721 15.48252729215560
MOVE-IIB                
1 44398U 19038N   22333.60157251  .00014616  00000+0  61410-3 0  9991
2 44398  97.6471 305.1105 0016953 280.1140  79.8186 15.23412753188132
SONATE                  
1 44400U 19038Q   22333.00823403  .00005408  00000+0  28008-3 0  9993
2 44400  97.6627 302.6183 0020780 288.0775  71.8194 15.16455170187852
LUCKY-7                 
1 44406U 19038W   22332.89016775  .00005805  00000+0  28961-3 0  9990
2 44406  97.6604 303.2326 0019643 285.5758  74.3307 15.17755247187884
BEESAT 9                
1 44412U 19038AC  22333.36032696  .00009900  00000+0  46047-3 0  9995
2 44412  97.6567 304.3520 0016753 287.4515  72.4887 15.20043296187710
JAISAT-1                
1 44419U 19038F   22333.36096932  .00009552  00000+0  43884-3 0  9994
2 44419  97.6568 305.3158 0015686 284.1226  75.8265 15.20495379188084
DUCHIFAT-3              
1 44854U 19089C   22333.03977946  .00003493  00000+0  26436-3 0  9992
2 44854  36.9646 203.7708 0005549 119.6969  24.1353 15.02423387162688
EYESAT-NANO             
1 44877U 19092E   22333.49387501  .00012495  00000+0  47979-3 0  9990
2 44877  97.4601 157.1362 0011313 132.4984 227.7212 15.26537920163502
ORBITAL FACTORY 2 (OF-2)
1 45113U 19071C   22333.33640656  .00054071  00000+0  71723-3 0  9997
2 45113  51.6350 322.2182 0011637  60.4526 299.7625 15.57634784158955
M2 PATHFINDER           
1 45727U 20037E   22333.44171527  .00001889  00000+0  18915-3 0  9993
2 45727  97.7404 146.0555 0012098 204.6842 155.3853 14.92527691131438
NETSAT-4                
1 46504U 20068U   22333.45256165  .00003703  00000+0  26844-3 0  9991
2 46504  97.7393 273.1479 0012471 122.2635 237.9811 15.04511746118845
NETSAT-3                
1 46505U 20068V   22333.60585603  .00002119  00000+0  15583-3 0  9999
2 46505  97.7410 273.1942 0011620 125.3560 234.8767 15.04455745118872
NETSAT-1                
1 46506U 20068W   22333.29597261  .00002843  00000+0  20781-3 0  9998
2 46506  97.7403 272.7969 0010009 136.1445 224.0578 15.04411845118820
NETSAT-2                
1 46507U 20068X   22333.57309975  .00003644  00000+0  26507-3 0  9995
2 46507  97.7385 273.0640 0009087 143.4493 216.7352 15.04420516118810
SAI-1 NANOCONNECT-2     
1 47701U 21015C   22333.20838858  .00014901  00000+0  48700-3 0  9999
2 47701  97.4094  49.6453 0009447 223.7392 136.3102 15.31786939 97393
WILDTRACKCUBE-SIMBA     
1 47941U 21022K   22333.56128905  .00003573  00000+0  23189-3 0  9994
2 47941  97.5136 229.5197 0019357 306.2691 136.8563 15.08557627 92879
BEESAT-6                
1 47957U 21022AB  22332.17501713  .00008245  00000+0  49420-3 0  9996
2 47957  97.5121 228.6546 0017965 311.2681  48.7001 15.11092503 92505
SMOG-1                  
1 47964U 21022AJ  22333.45626254  .00008540  00000+0  49017-3 0  9994
2 47964  97.5146 231.3517 0015766 293.7931  66.1647 15.12681992 91807
MMSATS-1                
1 47976U 98067SJ  22333.19418120  .00046367  00000+0  37961-3 0  9996
2 47976  51.6373 212.2294 0003268 159.6314 280.5890 15.70036644 96036
BCCSAT-1                
1 48041U 21022AK  22332.68392109  .00007359  00000+0  43672-3 0  9992
2 48041  97.5144 229.9868 0012866 296.2171  63.7736 15.11558020 91622
BEESAT-5                
1 48083U 21022AM  22332.20614887  .00009861  00000+0  58263-3 0  9998
2 48083  97.5094 228.7222 0017823 310.6489  49.3191 15.11563312 91641
BEESAT-7                
1 48084U 21022AN  22332.69847043  .00008084  00000+0  48175-3 0  9991
2 48084  97.5108 229.1864 0018056 308.6950  51.2665 15.11309754 91303
BEESAT-8                
1 48085U 21022AP  22332.97678892  .00005343  00000+0  32491-3 0  9996
2 48085  97.5122 229.4217 0017977 307.7353  52.2247 15.10733788 91903
LEDSAT                  
1 49069U 21073D   22333.19997837  .00004256  00000+0  26255-3 0  9996
2 49069  97.5086  42.8174 0027753  90.0503 270.3907 15.10135421 70684
HSU-SAT1                
1 53462U 98067UB  22333.43753161  .00061290  00000+0  69632-3 0  9999
2 53462  51.6361 233.5379 0009861 156.9100 203.2339 15.61677250 16988
FUTABA                  
1 53463U 98067UC  22333.11311558  .00082336  00000+0  84082-3 0  9995
2 53463  51.6347 234.3645 0010575 155.7187 204.4308 15.64273035 16945
TUMNANOSAT              
1 53464U 98067UD  22332.98078929  .00109146  00000+0  99247-3 0  9990
2 53464  51.6347 234.2285 0011239 155.5999 204.5531 15.67042270 16938
BEIJING 1               
1 28890U 05043A   22333.40362403  .00000205  00000+0  50680-4 0  9993
2 28890  98.1380  92.9670 0015506  22.6239 337.5656 14.61549246911235
HJ-1A                   
1 33320U 08041A   22333.48353520  .00000349  00000+0  54995-4 0  9998
2 33320  97.6625 358.6862 0022325  57.1528 303.1833 14.77998483766761
HJ-1B                   
1 33321U 08041B   22333.50202320  .00000742  00000+0  10846-3 0  9996
2 33321  97.6783   2.5994 0035622  73.9839 286.5296 14.78047479766761
YAOGAN 4                
1 33446U 08061A   22333.28706102  .00000526  00000+0  80598-4 0  9990
2 33446  97.8333 268.5241 0015377 325.3207  34.7000 14.77594830753937
DEIMOS-1                
1 35681U 09041A   22333.56581266  .00000310  00000+0  56529-4 0  9993
2 35681  97.6937 176.0224 0002792  69.5641 290.5867 14.72183910716062
UK-DMC 2                
1 35683U 09041C   22333.45644651  .00000458  00000+0  80938-4 0  9995
2 35683  97.7089 137.7529 0001811  89.5732 270.5692 14.71609123715778
RISAT 1                 
1 38248U 12017A   22333.26964786  .00003186  00000+0  18371-3 0  9997
2 38248  97.5501 342.9142 0005502  62.5210 297.6580 15.13088472583739
DMC3-FM1                
1 40715U 15032A   22333.45803592  .00000430  00000+0  60295-4 0  9999
2 40715  97.8234 216.8273 0005882 356.2770   3.8401 14.82292320397732
DMC3-FM2                
1 40716U 15032B   22333.48135964  .00000441  00000+0  61664-4 0  9997
2 40716  97.8274 217.5764 0007874 355.3972   4.7155 14.82285646397747
DMC3-FM3                
1 40717U 15032C   22333.43423492  .00000443  00000+0  62024-4 0  9992
2 40717  97.8315 218.5169 0009304 351.4631   8.6412 14.82281841397734
NOAA 15                 
1 25338U 98030A   22333.50104991  .00000124  00000+0  69756-4 0  9996
2 25338  98.6288   0.7605 0010567 170.8321 189.3054 14.26201430276540
DMSP 5D-3 F15 (USA 147) 
1 25991U 99067A   22333.49383884  .00000121  00000+0  83674-4 0  9992
2 25991  99.0643 327.9915 0011088  81.9756  90.1547 14.16603491187130
DMSP 5D-3 F16 (USA 172) 
1 28054U 03048A   22333.51180076  .00000063  00000+0  57514-4 0  9999
2 28054  99.0017 325.2812 0006841 205.0592 252.9211 14.13710718986358
NOAA 18                 
1 28654U 05018A   22333.43399075  .00000171  00000+0  11586-3 0  9994
2 28654  98.9335  43.6082 0013729 222.1026 137.9092 14.12813828903274
METEOSAT-9 (MSG-2)      
1 28912U 05049B   22332.98681668  .00000130  00000+0  00000+0 0  9996
2 28912   6.3927  65.1999 0001380 183.7002 219.8783  1.00273164 62047
EWS-G1 (GOES 13)        
1 29155U 06018A   22333.45762462  .00000040  00000+0  00000+0 0  9998
2 29155   0.9951  93.7868 0006587 143.6463  56.9557  1.00271866 30384
DMSP 5D-3 F17 (USA 191) 
1 29522U 06050A   22333.50307398  .00000091  00000+0  70544-4 0  9992
2 29522  98.7620 345.4346 0010423 146.9981 213.1844 14.14141823829237
FENGYUN 3A              
1 32958U 08026A   22333.28463034  .00000094  00000+0  65530-4 0  9991
2 32958  98.5273 289.3599 0007626 267.0423  92.9881 14.18765085751592
FENGYUN 2E              
1 33463U 08066A   22333.06224605 -.00000204  00000+0  00000+0 0  9992
2 33463   6.2720  64.3191 0001093 269.1745 203.6004  1.00276429 51090
NOAA 19                 
1 33591U 09005A   22333.45421472  .00000142  00000+0  10174-3 0  9999
2 33591  99.1294  10.9152 0014827  85.4178 274.8687 14.12643843711489
GOES 14                 
1 35491U 09033A   22333.44842731 -.00000092  00000+0  00000+0 0  9993
2 35491   0.2007 262.6424 0018111 319.8386 263.0861  1.00271206 49119
METEOR-M 1              
1 35865U 09049A   22333.35681128  .00000083  00000+0  56619-4 0  9997
2 35865  98.5524 298.6888 0003356 100.3822 259.7735 14.22382339684984
DMSP 5D-3 F18 (USA 210) 
1 35951U 09057A   22333.47146517  .00000177  00000+0  11680-3 0  9995
2 35951  98.7437 308.9553 0010924 342.7090  17.3709 14.13594713676427
GOES 15                 
1 36411U 10008A   22333.41988218  .00000055  00000+0  00000+0 0  9996
2 36411   0.1586 282.3285 0003248 276.5717 252.5557  1.00278666 46679
COMS 1                  
1 36744U 10032A   22333.52063341 -.00000342  00000+0  00000+0 0  9995
2 36744   1.4968  91.7120 0000759 142.2993 149.9738  1.00270513 38095
FENGYUN 3B              
1 37214U 10059A   22333.54653503  .00000064  00000+0  57620-4 0  9999
2 37214  99.0922 342.4609 0021294 248.8948 110.9945 14.14276687624297
SUOMI NPP               
1 37849U 11061A   22333.50038550  .00000063  00000+0  50494-4 0  9993
2 37849  98.7490 269.8598 0001080  90.7020  40.4045 14.19564118574614
FENGYUN 2F              
1 38049U 12002A   22333.41461307 -.00000356  00000+0  00000+0 0  9991
2 38049   4.1953  78.4008 0002396 272.7660 338.7483  1.00270516 39881
METEOSAT-10 (MSG-3)     
1 38552U 12035B   22333.26993868  .00000065  00000+0  00000+0 0  9997
2 38552   1.7925  49.3150 0001666 140.1204 345.4556  1.00272521 37868
METOP-B                 
1 38771U 12049A   22333.48661698  .00000077  00000+0  55347-4 0  9994
2 38771  98.7090  30.9049 0000472 108.9954   5.9116 14.21479378529188
FENGYUN 3C              
1 39260U 13052A   22333.55403519  .00000070  00000+0  56200-4 0  9999
2 39260  98.4419 353.2137 0011548 153.6958 206.4805 14.15962597475287
